H-2A R/B                
1 28932U 06002B   26198.89845716  .00004513  00000+0  21567-3 0  9992
2 28932  98.2601 357.5200 0050959 156.8974 203.4566 15.18471846114188
RESURS-DK 1             
1 29228U 06021A   26198.90437258  .00000894  00000+0  56144-4 0  9990
2 29228  69.9304 260.0312 0007256 268.0232  92.0103 15.13324459107227
CZ-4B R/B               
1 29507U 06046C   26198.70919185  .00001968  00000+0  98960-4 0  9994
2 29507  97.5433 243.2230 0032832 173.4572 186.7097 15.17992592 79766
CZ-2C R/B               
1 31114U 07010B   26198.91632872  .00000046  00000+0  40362-4 0  9990
2 31114  98.4121 305.7677 0057728 275.6862  83.7735 14.20282254998208
COSMO-SKYMED 1          
1 31598U 07023A   26198.94547520  .00001588  00000+0  14243-3 0  9998
2 31598  97.8849  31.0617 0001644 100.9973 259.1434 14.97228097 34391
COSMOS 2428             
1 31792U 07029A   26198.65670391  .00000279  00000+0  17539-3 0  9998
2 31792  70.9382 290.5034 0007245  76.3680 283.8247 14.12936026982450
SL-16 R/B               
1 31793U 07029B   26198.60059044  .00000264  00000+0  16175-3 0  9999
2 31793  70.9743 259.2962 0001924 256.9207 263.7130 14.14853002983748
KORONAS-FOTON           
1 33504U 09003A   26198.88688118  .00007458  00000+0  14997-3 0  9997
2 33504  82.4311 140.2213 0011938  54.1451 306.0904 15.46341132965845
CZ-2C R/B               
1 37731U 11030B   26198.90781432  .00000440  00000+0  61887-4 0  9997
2 37731  97.8671 153.7442 0050720 287.0895 139.6194 14.81535238809370
H-2A R/B                
1 38341U 12025E   26198.92856891  .00000679  00000+0  65982-4 0  9998
2 38341  98.4846 176.6150 0042621 245.8186 113.8574 14.95841383767684
SHIJIAN-16 (SJ-16)      
1 39358U 13057A   26198.93721608  .00000190  00000+0  21264-4 0  9994
2 39358  74.9742 298.4408 0015690 158.0692 202.1171 14.92674083690935
SL-4 R/B                
1 39679U 14021B   26198.90722666  .00005760  00000+0  12227-3 0  9990
2 39679  51.6063  60.2073 0089546 218.4688 140.9892 15.42515791676354
ALOS-2                  
1 39766U 14029A   26198.91212240  .00000946  00000+0  13348-3 0  9994
2 39766  97.9233 295.6367 0001606  91.0449 269.0946 14.79472116656122
YAOGAN-29               
1 41038U 15069A   26198.94300491 -.00000406  00000+0 -43220-4 0  9999
2 41038  98.0014 227.6227 0000519   5.7587 354.3632 14.83105933575184
ASTRO-H (HITOMI)        
1 41337U 16012A   26198.42988392  .00001164  00000+0  62956-4 0  9992
2 41337  30.9978 238.8526 0009629 197.9252 162.1048 15.10637474571868
HXMT (HUIYAN)           
1 42758U 17034A   26198.91649127  .00002134  00000+0  11130-3 0  9994
2 42758  43.0153  11.9019 0031957 337.8105  22.1359 15.18702368502333
SAOCOM 1A               
1 43641U 18076A   26198.92086771 -.00000170  00000+0 -14822-4 0  9996
2 43641  97.8882  25.2225 0001417  85.0288 275.1087 14.82147234420657
H-2A R/B                
1 43682U 18084L   26198.61819263  .00010892  00000+0  22203-3 0  9997
2 43682  98.8523  84.1810 0020380 291.4304  68.4767 15.46259385425825
SAOCOM 1B               
1 46265U 20059A   26198.95205988  .00000703  00000+0  94917-4 0  9994
2 46265  97.8888  24.3495 0001521  83.9119 276.2268 14.82146609318040
CSS (TIANHE)            
1 48274U 21035A   26198.52240887  .00001129  00000+0  18813-4 0  9995
2 48274  41.4691 137.7269 0001921 301.5742  58.4908 15.58143309297902
COSMOS 2550             
1 48865U 21056A   26198.93275426  .00002795  00000+0  90721-4 0  9994
2 48865  67.1439   6.9018 0008539 270.0001  90.0175 15.33844231283438
CZ-2C R/B               
1 52794U 22058K   26198.86604578  .00026877  00000+0  27714-3 0  9997
2 52794  50.1854   3.6220 0030212  33.7978 326.4915 15.63997429230448
CZ-2C R/B               
1 54039U 22132E   26198.93388568  .00045587  00000+0  30355-3 0  9994
2 54039  97.2890 207.4176 0008937 329.5901  30.4845 15.75236710210780
GSLV R/B                
1 54149U 22138AN  26198.85994327  .00001504  00000+0  12625-3 0  9990
2 54149  87.3816 122.6847 0023232  43.4476 316.8581 14.97389969203404
XRISM                   
1 57800U 23137A   26198.94174532  .00002367  00000+0  12647-3 0  9997
2 57800  31.0010 160.3465 0007864 273.4693  86.5046 15.12681596157524
ACS3                    
1 59588U 24077B   26198.47732248  .00008754  00000+0  60560-2 0  9990
2 59588  97.1754 110.5556 0127982  34.1783 326.7540 13.95305002112265
SPACEMOBILE-003         
1 61045U 24163A   26198.90793609  .00001261  00000+0  71269-4 0  9999
2 61045  52.9669 168.1687 0004494 202.4394 157.6405 15.20713181102445
SPACEMOBILE-005         
1 61046U 24163B   26198.62847907  .00001625  00000+0  87600-4 0  9990
2 61046  52.9759 169.4054 0008584 203.1415 156.9194 15.20721282102396
SPACEMOBILE-001         
1 61047U 24163C   26198.03530451  .00000145  00000+0  21220-4 0  9991
2 61047  52.9725 171.8417 0007093 199.2363 160.8365 15.20743460102308
SPACEMOBILE-002         
1 61048U 24163D   26198.93926592 -.00012497  00000+0 -54767-3 0  9992
2 61048  52.9786 167.7269 0005541 200.5884 159.4888 15.20685005102444
