OBJECT_NAME,OBJECT_ID,EPOCH,MEAN_MOTION,ECCENTRICITY,INCLINATION,RA_OF_ASC_NODE,ARG_OF_PERICENTER,MEAN_ANOMALY,EPHEMERIS_TYPE,CLASSIFICATION_TYPE,NORAD_CAT_ID,ELEMENT_SET_NO,REV_AT_EPOCH,BSTAR,MEAN_MOTION_DOT,MEAN_MOTION_DDOT
H-2A R/B,2006-002B,2026-07-17T21:33:46.698624,15.18471846,.00509591,98.2601,357.5200,156.8974,203.4566,0,U,28932,999,11418,.21567228E-3,.4513E-4,0
RESURS-DK 1,2006-021A,2026-07-17T21:42:17.790912,15.13324459,.00072566,69.9304,260.0312,268.0232,92.0103,0,U,29228,999,10722,.56144456E-4,.894E-5,0
CZ-4B R/B,2006-046C,2026-07-17T17:01:14.175840,15.17992592,.0032832,97.5433,243.2230,173.4572,186.7097,0,U,29507,999,7976,.98960265E-4,.1968E-4,0
CZ-2C R/B,2007-010B,2026-07-17T21:59:30.801408,14.20282254,.00577282,98.4121,305.7677,275.6862,83.7735,0,U,31114,999,99820,.40361728E-4,.46E-6,0
COSMO-SKYMED 1,2007-023A,2026-07-17T22:41:29.057280,14.97228097,.00016446,97.8849,31.0617,100.9973,259.1434,0,U,31598,999,3439,.14242686E-3,.1588E-4,0
COSMOS 2428,2007-029A,2026-07-17T15:45:39.217824,14.12936026,.00072456,70.9382,290.5034,76.3680,283.8247,0,U,31792,999,98245,.17539209E-3,.279E-5,0
SL-16 R/B,2007-029B,2026-07-17T14:24:51.014016,14.14853002,.0001924,70.9743,259.2962,256.9207,263.7130,0,U,31793,999,98374,.16175E-3,.264E-5,0
KORONAS-FOTON,2009-003A,2026-07-17T21:17:06.533952,15.46341132,.00119383,82.4311,140.2213,54.1451,306.0904,0,U,33504,999,96584,.1499672E-3,.7458E-4,0
CZ-2C R/B,2011-030B,2026-07-17T21:47:15.157248,14.81535238,.00507201,97.8671,153.7442,287.0895,139.6194,0,U,37731,999,80937,.6188682E-4,.44E-5,0
H-2A R/B,2012-025E,2026-07-17T22:17:08.353824,14.95841383,.00426214,98.4846,176.6150,245.8186,113.8574,0,U,38341,999,76768,.65982428E-4,.679E-5,0
SHIJIAN-16 (SJ-16),2013-057A,2026-07-17T22:29:35.469312,14.92674083,.00156904,74.9742,298.4408,158.0692,202.1171,0,U,39358,999,69093,.21264458E-4,.19E-5,0
SL-4 R/B,2014-021B,2026-07-17T21:46:24.383424,15.42515791,.00895469,51.6063,60.2073,218.4688,140.9892,0,U,39679,999,67635,.12227121E-3,.576E-4,0
ALOS-2,2014-029A,2026-07-17T21:53:27.375360,14.79472116,.00016067,97.9233,295.6367,91.0449,269.0946,0,U,39766,999,65612,.13348131E-3,.946E-5,0
YAOGAN-29,2015-069A,2026-07-17T22:37:55.624224,14.83105933,.00005197,98.0014,227.6227,5.7587,354.3632,0,U,41038,999,57518,-.43220193E-4,-.406E-5,0
ASTRO-H (HITOMI),2016-012A,2026-07-17T10:19:01.970688,15.10637474,.00096294,30.9978,238.8526,197.9252,162.1048,0,U,41337,999,57186,.62956275E-4,.1164E-4,0
HXMT (HUIYAN),2017-034A,2026-07-17T21:59:44.845728,15.18702368,.00319577,43.0153,11.9019,337.8105,22.1359,0,U,42758,999,50233,.11130254E-3,.2134E-4,0
SAOCOM 1A,2018-076A,2026-07-17T22:06:02.970144,14.82147234,.00014177,97.8882,25.2225,85.0288,275.1087,0,U,43641,999,42065,-.14821955E-4,-.17E-5,0
H-2A R/B,2018-084L,2026-07-17T14:50:11.843232,15.46259385,.00203807,98.8523,84.1810,291.4304,68.4767,0,U,43682,999,42582,.222029E-3,.10892E-3,0
SAOCOM 1B,2020-059A,2026-07-17T22:50:57.973632,14.82146609,.00015212,97.8888,24.3495,83.9119,276.2268,0,U,46265,999,31804,.94916898E-4,.703E-5,0
CSS (TIANHE),2021-035A,2026-07-17T12:32:16.126368,15.58143309,.0001921,41.4691,137.7269,301.5742,58.4908,0,U,48274,999,29790,.18813E-4,.1129E-4,0
COSMOS 2550,2021-056A,2026-07-17T22:23:09.968064,15.33844231,.0008539,67.1439,6.9018,270.0001,90.0175,0,U,48865,999,28343,.90721299E-4,.2795E-4,0
CZ-2C R/B,2022-058K,2026-07-17T20:47:06.355392,15.63997429,.00302122,50.1854,3.6220,33.7978,326.4915,0,U,52794,999,23044,.27713812E-3,.26877E-3,0
CZ-2C R/B,2022-132E,2026-07-17T22:24:47.722752,15.75236710,.00089374,97.2890,207.4176,329.5901,30.4845,0,U,54039,999,21078,.30354821E-3,.45587E-3,0
GSLV R/B,2022-138AN,2026-07-17T20:38:19.098528,14.97389969,.00232322,87.3816,122.6847,43.4476,316.8581,0,U,54149,999,20340,.12625425E-3,.1504E-4,0
XRISM,2023-137A,2026-07-17T22:36:06.795648,15.12681596,.00078647,31.0010,160.3465,273.4693,86.5046,0,U,57800,999,15752,.12646878E-3,.2367E-4,0
ACS3,2024-077B,2026-07-17T11:27:20.662272,13.95305002,.0127982,97.1754,110.5556,34.1783,326.7540,0,U,59588,999,11226,.6056E-2,.8754E-4,0
SPACEMOBILE-003,2024-163A,2026-07-17T21:47:25.678176,15.20713181,.00044948,52.9669,168.1687,202.4394,157.6405,0,U,61045,999,10244,.71268822E-4,.1261E-4,0
SPACEMOBILE-005,2024-163B,2026-07-17T15:05:00.591648,15.20721282,.00085847,52.9759,169.4054,203.1415,156.9194,0,U,61046,999,10239,.87600417E-4,.1625E-4,0
SPACEMOBILE-001,2024-163C,2026-07-17T00:50:50.309664,15.20743460,.00070937,52.9725,171.8417,199.2363,160.8365,0,U,61047,999,10230,.21220399E-4,.145E-5,0
SPACEMOBILE-002,2024-163D,2026-07-17T22:32:32.575488,15.20685005,.00055417,52.9786,167.7269,200.5884,159.4888,0,U,61048,999,10244,-.54766943E-3,-.12497E-3,0
